{
"type": "FeatureCollection",
"name": "beneficiarios1",
"crs": { "type": "name", "properties": { "name": "urn:ogc:def:crs:OGC:1.3:CRS84" } },
"features": [
{ "type": "Feature", "properties": { "id": 3179 }, "geometry": { "type": "Point", "coordinates": [ -78.94398399318689, -1.479228173811866 ] } },
{ "type": "Feature", "properties": { "id": 3181 }, "geometry": { "type": "Point", "coordinates": [ -78.959908326687426, -1.472377238522645 ] } },
{ "type": "Feature", "properties": { "id": 3195 }, "geometry": { "type": "Point", "coordinates": [ -78.992314289354681, -1.284589093972172 ] } },
{ "type": "Feature", "properties": { "id": 3196 }, "geometry": { "type": "Point", "coordinates": [ -78.979205013395344, -1.283479100203041 ] } },
{ "type": "Feature", "properties": { "id": 3197 }, "geometry": { "type": "Point", "coordinates": [ -79.012522556443997, -1.289003450801362 ] } },
{ "type": "Feature", "properties": { "id": 3206 }, "geometry": { "type": "Point", "coordinates": [ -78.999947707188042, -1.302738598245764 ] } },
{ "type": "Feature", "properties": { "id": 3207 }, "geometry": { "type": "Point", "coordinates": [ -78.981955073936973, -1.259290246787859 ] } },
{ "type": "Feature", "properties": { "id": 3208 }, "geometry": { "type": "Point", "coordinates": [ -78.961734966489928, -1.270819986718716 ] } },
{ "type": "Feature", "properties": { "id": 3210 }, "geometry": { "type": "Point", "coordinates": [ -78.94478348651306, -1.293347589618282 ] } },
{ "type": "Feature", "properties": { "id": 3211 }, "geometry": { "type": "Point", "coordinates": [ -78.916662196235976, -1.515246613865794 ] } },
{ "type": "Feature", "properties": { "id": 3212 }, "geometry": { "type": "Point", "coordinates": [ -79.02714910072568, -1.270871120584514 ] } },
{ "type": "Feature", "properties": { "id": 3213 }, "geometry": { "type": "Point", "coordinates": [ -79.027676409344465, -1.295613051579876 ] } },
{ "type": "Feature", "properties": { "id": 3214 }, "geometry": { "type": "Point", "coordinates": [ -78.924071649734401, -1.495229185391813 ] } },
{ "type": "Feature", "properties": { "id": 3215 }, "geometry": { "type": "Point", "coordinates": [ -79.015684648533096, -1.2615155476887 ] } },
{ "type": "Feature", "properties": { "id": 3216 }, "geometry": { "type": "Point", "coordinates": [ -79.013462626579795, -1.309347043712676 ] } },
{ "type": "Feature", "properties": { "id": 3220 }, "geometry": { "type": "Point", "coordinates": [ -78.933194660407594, -1.466058989579649 ] } },
{ "type": "Feature", "properties": { "id": 3224 }, "geometry": { "type": "Point", "coordinates": [ -78.916696237888004, -1.479202554473771 ] } },
{ "type": "Feature", "properties": { "id": 3228 }, "geometry": { "type": "Point", "coordinates": [ -78.924681450034001, -1.450603511104893 ] } },
{ "type": "Feature", "properties": { "id": 3229 }, "geometry": { "type": "Point", "coordinates": [ -78.910457771638235, -1.463177114022259 ] } },
{ "type": "Feature", "properties": { "id": 3230 }, "geometry": { "type": "Point", "coordinates": [ -78.956482634092666, -1.488394081955742 ] } },
{ "type": "Feature", "properties": { "id": 3231 }, "geometry": { "type": "Point", "coordinates": [ -78.937717232284868, -1.49352572350972 ] } },
{ "type": "Feature", "properties": { "id": 3232 }, "geometry": { "type": "Point", "coordinates": [ -78.889942407496605, -1.515792700036602 ] } },
{ "type": "Feature", "properties": { "id": 3233 }, "geometry": { "type": "Point", "coordinates": [ -78.936564122277119, -1.510688703496914 ] } },
{ "type": "Feature", "properties": { "id": 3234 }, "geometry": { "type": "Point", "coordinates": [ -78.93662693303682, -1.442604604965275 ] } },
{ "type": "Feature", "properties": { "id": 3236 }, "geometry": { "type": "Point", "coordinates": [ -78.993791309960088, -1.31647867662367 ] } },
{ "type": "Feature", "properties": { "id": 3237 }, "geometry": { "type": "Point", "coordinates": [ -78.960495939670494, -1.451208435550406 ] } },
{ "type": "Feature", "properties": { "id": 3239 }, "geometry": { "type": "Point", "coordinates": [ -78.945711423252035, -1.455199941729324 ] } },
{ "type": "Feature", "properties": { "id": 3240 }, "geometry": { "type": "Point", "coordinates": [ -79.045170610690079, -1.278032542499087 ] } },
{ "type": "Feature", "properties": { "id": 3241 }, "geometry": { "type": "Point", "coordinates": [ -78.963292066631254, -1.502131909624015 ] } },
{ "type": "Feature", "properties": { "id": 3242 }, "geometry": { "type": "Point", "coordinates": [ -78.959385863103918, -1.305454799426846 ] } },
{ "type": "Feature", "properties": { "id": 3244 }, "geometry": { "type": "Point", "coordinates": [ -78.937564255517486, -1.270250889703544 ] } },
{ "type": "Feature", "properties": { "id": 3251 }, "geometry": { "type": "Point", "coordinates": [ -79.011337666037676, -1.230723050245589 ] } },
{ "type": "Feature", "properties": { "id": 3255 }, "geometry": { "type": "Point", "coordinates": [ -78.967086328715766, -1.237836752031094 ] } },
{ "type": "Feature", "properties": { "id": 3256 }, "geometry": { "type": "Point", "coordinates": [ -79.046824276759665, -1.258240358512488 ] } },
{ "type": "Feature", "properties": { "id": 3257 }, "geometry": { "type": "Point", "coordinates": [ -79.040294145312672, -1.224146835369108 ] } },
{ "type": "Feature", "properties": { "id": 3258 }, "geometry": { "type": "Point", "coordinates": [ -79.044065920509468, -1.293976391543452 ] } },
{ "type": "Feature", "properties": { "id": 3259 }, "geometry": { "type": "Point", "coordinates": [ -79.037545479534145, -1.247786862097561 ] } },
{ "type": "Feature", "properties": { "id": 3260 }, "geometry": { "type": "Point", "coordinates": [ -78.943043019322033, -1.249363530749294 ] } },
{ "type": "Feature", "properties": { "id": 3261 }, "geometry": { "type": "Point", "coordinates": [ -78.969755811447314, -1.316459091135686 ] } },
{ "type": "Feature", "properties": { "id": 3262 }, "geometry": { "type": "Point", "coordinates": [ -78.987841497773474, -1.240601681440174 ] } },
{ "type": "Feature", "properties": { "id": 3263 }, "geometry": { "type": "Point", "coordinates": [ -78.948478555361945, -1.283454472701795 ] } },
{ "type": "Feature", "properties": { "id": 3264 }, "geometry": { "type": "Point", "coordinates": [ -78.938687620020559, -1.230667519913809 ] } },
{ "type": "Feature", "properties": { "id": 3265 }, "geometry": { "type": "Point", "coordinates": [ -79.036406999781903, -1.308265612191523 ] } },
{ "type": "Feature", "properties": { "id": 3268 }, "geometry": { "type": "Point", "coordinates": [ -78.933620955674897, -1.628153844752936 ] } },
{ "type": "Feature", "properties": { "id": 3269 }, "geometry": { "type": "Point", "coordinates": [ -78.944001083551655, -1.628164526548482 ] } },
{ "type": "Feature", "properties": { "id": 3270 }, "geometry": { "type": "Point", "coordinates": [ -78.940453882425714, -1.624312418176964 ] } },
{ "type": "Feature", "properties": { "id": 3271 }, "geometry": { "type": "Point", "coordinates": [ -78.952188737994859, -1.635320114305467 ] } },
{ "type": "Feature", "properties": { "id": 3272 }, "geometry": { "type": "Point", "coordinates": [ -78.915989452314676, -1.573158360164088 ] } },
{ "type": "Feature", "properties": { "id": 3273 }, "geometry": { "type": "Point", "coordinates": [ -78.921332164358631, -1.62484248575884 ] } },
{ "type": "Feature", "properties": { "id": 3274 }, "geometry": { "type": "Point", "coordinates": [ -78.959300448978468, -1.625981024140988 ] } },
{ "type": "Feature", "properties": { "id": 3275 }, "geometry": { "type": "Point", "coordinates": [ -78.921992220308724, -1.579761679073342 ] } },
{ "type": "Feature", "properties": { "id": 3276 }, "geometry": { "type": "Point", "coordinates": [ -78.962836635064505, -1.640828902427028 ] } },
{ "type": "Feature", "properties": { "id": 3277 }, "geometry": { "type": "Point", "coordinates": [ -78.936340774029716, -1.639702010443491 ] } },
{ "type": "Feature", "properties": { "id": 3278 }, "geometry": { "type": "Point", "coordinates": [ -78.975686287456497, -1.630121074429173 ] } },
{ "type": "Feature", "properties": { "id": 3279 }, "geometry": { "type": "Point", "coordinates": [ -79.122961635132825, -1.351494929782132 ] } },
{ "type": "Feature", "properties": { "id": 3280 }, "geometry": { "type": "Point", "coordinates": [ -79.111206723541628, -1.363307285394818 ] } },
{ "type": "Feature", "properties": { "id": 3281 }, "geometry": { "type": "Point", "coordinates": [ -79.120494301212076, -1.36303968073762 ] } },
{ "type": "Feature", "properties": { "id": 3282 }, "geometry": { "type": "Point", "coordinates": [ -79.137431265413895, -1.361678309903666 ] } },
{ "type": "Feature", "properties": { "id": 3283 }, "geometry": { "type": "Point", "coordinates": [ -79.113111734924303, -1.372381134503515 ] } },
{ "type": "Feature", "properties": { "id": 3284 }, "geometry": { "type": "Point", "coordinates": [ -79.126768422724979, -1.374041470579119 ] } },
{ "type": "Feature", "properties": { "id": 3285 }, "geometry": { "type": "Point", "coordinates": [ -79.159833524433836, -1.357846652110914 ] } },
{ "type": "Feature", "properties": { "id": 3286 }, "geometry": { "type": "Point", "coordinates": [ -79.137441348772597, -1.348481993086313 ] } },
{ "type": "Feature", "properties": { "id": 3287 }, "geometry": { "type": "Point", "coordinates": [ -79.137425338064901, -1.369376160676926 ] } },
{ "type": "Feature", "properties": { "id": 3288 }, "geometry": { "type": "Point", "coordinates": [ -78.922049265994815, -1.59103211107059 ] } },
{ "type": "Feature", "properties": { "id": 3301 }, "geometry": { "type": "Point", "coordinates": [ -78.931275600370014, -1.583619446667838 ] } },
{ "type": "Feature", "properties": { "id": 3302 }, "geometry": { "type": "Point", "coordinates": [ -78.921236124966356, -1.584708884698869 ] } },
{ "type": "Feature", "properties": { "id": 3303 }, "geometry": { "type": "Point", "coordinates": [ -78.958658992016723, -1.584196561188898 ] } },
{ "type": "Feature", "properties": { "id": 3304 }, "geometry": { "type": "Point", "coordinates": [ -78.934621332536153, -1.584035139156049 ] } },
{ "type": "Feature", "properties": { "id": 3305 }, "geometry": { "type": "Point", "coordinates": [ -78.936661948166673, -1.592146432300719 ] } },
{ "type": "Feature", "properties": { "id": 3306 }, "geometry": { "type": "Point", "coordinates": [ -78.948818799647597, -1.59078418361959 ] } },
{ "type": "Feature", "properties": { "id": 3307 }, "geometry": { "type": "Point", "coordinates": [ -78.944714206682008, -1.598064686907751 ] } },
{ "type": "Feature", "properties": { "id": 3308 }, "geometry": { "type": "Point", "coordinates": [ -78.930513203154646, -1.59488911542433 ] } },
{ "type": "Feature", "properties": { "id": 3309 }, "geometry": { "type": "Point", "coordinates": [ -78.926708182009392, -1.575643100804717 ] } },
{ "type": "Feature", "properties": { "id": 3310 }, "geometry": { "type": "Point", "coordinates": [ -78.951419894107303, -1.584601708215855 ] } },
{ "type": "Feature", "properties": { "id": 3311 }, "geometry": { "type": "Point", "coordinates": [ -78.93365106076179, -1.598328403687821 ] } },
{ "type": "Feature", "properties": { "id": 3312 }, "geometry": { "type": "Point", "coordinates": [ -79.129256797145629, -1.504427984388853 ] } },
{ "type": "Feature", "properties": { "id": 3313 }, "geometry": { "type": "Point", "coordinates": [ -78.95482923476871, -1.589828063698915 ] } },
{ "type": "Feature", "properties": { "id": 3314 }, "geometry": { "type": "Point", "coordinates": [ -78.953458830146559, -1.594499871485854 ] } },
{ "type": "Feature", "properties": { "id": 3329 }, "geometry": { "type": "Point", "coordinates": [ -79.094807606864748, -1.375665527887551 ] } },
{ "type": "Feature", "properties": { "id": 3333 }, "geometry": { "type": "Point", "coordinates": [ -79.066471317809828, -1.283547019032932 ] } },
{ "type": "Feature", "properties": { "id": 3334 }, "geometry": { "type": "Point", "coordinates": [ -78.980668531100378, -1.3318622923016 ] } },
{ "type": "Feature", "properties": { "id": 3335 }, "geometry": { "type": "Point", "coordinates": [ -79.006409887796664, -1.246113879366591 ] } },
{ "type": "Feature", "properties": { "id": 3336 }, "geometry": { "type": "Point", "coordinates": [ -78.926102500744008, -1.25869633497021 ] } },
{ "type": "Feature", "properties": { "id": 3337 }, "geometry": { "type": "Point", "coordinates": [ -78.956703587858073, -1.243326596447498 ] } },
{ "type": "Feature", "properties": { "id": 3338 }, "geometry": { "type": "Point", "coordinates": [ -78.966499445944876, -1.290066453857661 ] } },
{ "type": "Feature", "properties": { "id": 3339 }, "geometry": { "type": "Point", "coordinates": [ -79.021700566410914, -1.252173392889073 ] } },
{ "type": "Feature", "properties": { "id": 3340 }, "geometry": { "type": "Point", "coordinates": [ -78.908759019060014, -1.632526197594987 ] } },
{ "type": "Feature", "properties": { "id": 3341 }, "geometry": { "type": "Point", "coordinates": [ -79.070095201194491, -1.52860424479821 ] } },
{ "type": "Feature", "properties": { "id": 3343 }, "geometry": { "type": "Point", "coordinates": [ -79.128219892747666, -1.492839331622117 ] } },
{ "type": "Feature", "properties": { "id": 3344 }, "geometry": { "type": "Point", "coordinates": [ -79.085842852575567, -1.474894695677809 ] } },
{ "type": "Feature", "properties": { "id": 3345 }, "geometry": { "type": "Point", "coordinates": [ -79.093158997609819, -1.487541952797951 ] } },
{ "type": "Feature", "properties": { "id": 3346 }, "geometry": { "type": "Point", "coordinates": [ -79.090012038414997, -1.495439782748283 ] } },
{ "type": "Feature", "properties": { "id": 3347 }, "geometry": { "type": "Point", "coordinates": [ -79.0915447258255, -1.538104229078934 ] } },
{ "type": "Feature", "properties": { "id": 3348 }, "geometry": { "type": "Point", "coordinates": [ -79.116186009829192, -1.488615286235755 ] } },
{ "type": "Feature", "properties": { "id": 3349 }, "geometry": { "type": "Point", "coordinates": [ -79.120350429534511, -1.51495455641626 ] } },
{ "type": "Feature", "properties": { "id": 3350 }, "geometry": { "type": "Point", "coordinates": [ -79.149667128616827, -1.506025670560108 ] } },
{ "type": "Feature", "properties": { "id": 3358 }, "geometry": { "type": "Point", "coordinates": [ -79.105453753784943, -1.384471446915592 ] } },
{ "type": "Feature", "properties": { "id": 3375 }, "geometry": { "type": "Point", "coordinates": [ -79.037673040306785, -1.508948897429893 ] } },
{ "type": "Feature", "properties": { "id": 3383 }, "geometry": { "type": "Point", "coordinates": [ -78.971305114563222, -1.640562668695624 ] } },
{ "type": "Feature", "properties": { "id": 3384 }, "geometry": { "type": "Point", "coordinates": [ -78.913249735948497, -1.581402173780382 ] } },
{ "type": "Feature", "properties": { "id": 3392 }, "geometry": { "type": "Point", "coordinates": [ -78.948456854140332, -1.310393908912959 ] } },
{ "type": "Feature", "properties": { "id": 3393 }, "geometry": { "type": "Point", "coordinates": [ -78.929938184522655, -1.243305604806044 ] } },
{ "type": "Feature", "properties": { "id": 3394 }, "geometry": { "type": "Point", "coordinates": [ -78.896720628848925, -1.651205574968334 ] } },
{ "type": "Feature", "properties": { "id": 3395 }, "geometry": { "type": "Point", "coordinates": [ -78.976759073593684, -1.649914707809894 ] } },
{ "type": "Feature", "properties": { "id": 3396 }, "geometry": { "type": "Point", "coordinates": [ -78.958460101866706, -1.646597172430754 ] } },
{ "type": "Feature", "properties": { "id": 3397 }, "geometry": { "type": "Point", "coordinates": [ -78.926967132858266, -1.589937538806362 ] } },
{ "type": "Feature", "properties": { "id": 3398 }, "geometry": { "type": "Point", "coordinates": [ -79.143923708111913, -1.489692404751914 ] } },
{ "type": "Feature", "properties": { "id": 3400 }, "geometry": { "type": "Point", "coordinates": [ -78.961658626877693, -1.589422520484619 ] } },
{ "type": "Feature", "properties": { "id": 3401 }, "geometry": { "type": "Point", "coordinates": [ -78.968856554751341, -1.630663942447197 ] } },
{ "type": "Feature", "properties": { "id": 3402 }, "geometry": { "type": "Point", "coordinates": [ -78.95345502299088, -1.598348364256472 ] } },
{ "type": "Feature", "properties": { "id": 3403 }, "geometry": { "type": "Point", "coordinates": [ -78.961242535659437, -1.595882115160783 ] } },
{ "type": "Feature", "properties": { "id": 3408 }, "geometry": { "type": "Point", "coordinates": [ -79.136053483774859, -1.512861336516001 ] } },
{ "type": "Feature", "properties": { "id": 3423 }, "geometry": { "type": "Point", "coordinates": [ -79.118821454438105, -1.466495583832421 ] } },
{ "type": "Feature", "properties": { "id": 3424 }, "geometry": { "type": "Point", "coordinates": [ -79.161684872483761, -1.529738584841561 ] } },
{ "type": "Feature", "properties": { "id": 3426 }, "geometry": { "type": "Point", "coordinates": [ -79.092618330777697, -1.507556287913661 ] } },
{ "type": "Feature", "properties": { "id": 3427 }, "geometry": { "type": "Point", "coordinates": [ -79.110922422909198, -1.523373678167314 ] } },
{ "type": "Feature", "properties": { "id": 3430 }, "geometry": { "type": "Point", "coordinates": [ -79.183141719758311, -1.532390641196506 ] } },
{ "type": "Feature", "properties": { "id": 3431 }, "geometry": { "type": "Point", "coordinates": [ -79.070104577508289, -1.518070286772728 ] } },
{ "type": "Feature", "properties": { "id": 3434 }, "geometry": { "type": "Point", "coordinates": [ -79.098930756584011, -1.342678760256646 ] } },
{ "type": "Feature", "properties": { "id": 3435 }, "geometry": { "type": "Point", "coordinates": [ -79.131850146086634, -1.531819518860777 ] } },
{ "type": "Feature", "properties": { "id": 3475 }, "geometry": { "type": "Point", "coordinates": [ -78.932690607227727, -1.602725654861853 ] } },
{ "type": "Feature", "properties": { "id": 3476 }, "geometry": { "type": "Point", "coordinates": [ -78.987974239300883, -1.634806743540995 ] } },
{ "type": "Feature", "properties": { "id": 3483 }, "geometry": { "type": "Point", "coordinates": [ -78.916250998977461, -1.282878469308473 ] } },
{ "type": "Feature", "properties": { "id": 3632 }, "geometry": { "type": "Point", "coordinates": [ -78.915718473143642, -1.265835055783153 ] } }
]
}
