{
"type": "FeatureCollection",
"name": "centrossalud",
"crs": { "type": "name", "properties": { "name": "urn:ogc:def:crs:OGC:1.3:CRS84" } },
"features": [
{ "type": "Feature", "properties": { "id": 6, "nombre": "FACUNDO VELA", "tipologia": "CENTRO DE SALUD A", "institucio": "MSP", "zona": "Z05", "provincia": "BOLIVAR", "distrito": "02D01", "canton": "GUARANDA", "parroquia": "FACUNDO VELA", "categoria": "RURAL MODERADA ACCESIBILIDAD" }, "geometry": { "type": "Point", "coordinates": [ -79.106783077018534, -1.226159449775078 ] } },
{ "type": "Feature", "properties": { "id": 4, "nombre": "CUATRO ESQUINAS", "tipologia": "CENTRO DE SALUD A", "institucio": "MSP", "zona": "Z05", "provincia": "BOLIVAR", "distrito": "02D01", "canton": "GUARANDA", "parroquia": "GUANUJO", "categoria": "RURAL ALTA ACCESIBILIDAD" }, "geometry": { "type": "Point", "coordinates": [ -78.949748121399409, -1.46219095550933 ] } },
{ "type": "Feature", "properties": { "id": 7, "nombre": "GUANUJO", "tipologia": "CENTRO DE SALUD A", "institucio": "MSP", "zona": "Z05", "provincia": "BOLIVAR", "distrito": "02D01", "canton": "GUARANDA", "parroquia": "GURANDA GUANUJO", "categoria": "RURAL ALTA ACCESIBILIDAD" }, "geometry": { "type": "Point", "coordinates": [ -78.948460267937733, -1.505315999743171 ] } },
{ "type": "Feature", "properties": { "id": 8, "nombre": "JULIO MORENO (CATANAHUAN G.)", "tipologia": "CENTRO DE SALUD A", "institucio": "MSP", "zona": "Z05", "provincia": "BOLIVAR", "distrito": "02D01", "canton": "GUARANDA", "parroquia": "JULIO E. MORENO (CATANAHUAN GRANDE", "categoria": "RURAL ALTA ACCESIBILIDAD" }, "geometry": { "type": "Point", "coordinates": [ -79.113583461999283, -1.567440017650324 ] } },
{ "type": "Feature", "properties": { "id": 19, "nombre": "TABLAS CHICO", "tipologia": "PUESTO DE SALUD", "institucio": "MSP", "zona": "Z05", "provincia": "BOLIVAR", "distrito": "02D01", "canton": "GUARANDA", "parroquia": "JULIO E. MORENO (CATANAHUAN GRANDE", "categoria": "RURAL BAJA ACCESIBILIDAD" }, "geometry": { "type": "Point", "coordinates": [ -79.092347024101841, -1.584588891433536 ] } },
{ "type": "Feature", "properties": { "id": 3, "nombre": "CHAZO JUAN", "tipologia": "CENTRO DE SALUD A", "institucio": "MSP", "zona": "Z05", "provincia": "BOLIVAR", "distrito": "02D01", "canton": "GUARANDA", "parroquia": "SALINAS", "categoria": "RURAL MODERADA ACCESIBILIDAD" }, "geometry": { "type": "Point", "coordinates": [ -79.147886587564216, -1.343438903776937 ] } },
{ "type": "Feature", "properties": { "id": 9, "nombre": "LA PALMA", "tipologia": "CENTRO DE SALUD A", "institucio": "MSP", "zona": "Z05", "provincia": "BOLIVAR", "distrito": "02D01", "canton": "GUARANDA", "parroquia": "SALINAS", "categoria": "RURAL BAJA ACCESIBILIDAD" }, "geometry": { "type": "Point", "coordinates": [ -79.141220992516395, -1.354740059412353 ] } },
{ "type": "Feature", "properties": { "id": 12, "nombre": "SALINAS", "tipologia": "CENTRO DE SALUD A", "institucio": "MSP", "zona": "Z05", "provincia": "BOLIVAR", "distrito": "02D01", "canton": "GUARANDA", "parroquia": "SALINAS", "categoria": "RURAL MODERADA ACCESIBILIDAD" }, "geometry": { "type": "Point", "coordinates": [ -79.153673053286212, -1.3936936643154 ] } },
{ "type": "Feature", "properties": { "id": 14, "nombre": "SAN LORENZO", "tipologia": "CENTRO DE SALUD A", "institucio": "MSP", "zona": "Z05", "provincia": "BOLIVAR", "distrito": "02D01", "canton": "GUARANDA", "parroquia": "SAN LORENZO", "categoria": "RURAL ALTA ACCESIBILIDAD" }, "geometry": { "type": "Point", "coordinates": [ -78.94496131151989, -1.677607714756874 ] } },
{ "type": "Feature", "properties": { "id": 15, "nombre": "SAN LUIS DE PAMBIL", "tipologia": "CENTRO DE SALUD A", "institucio": "MSP", "zona": "Z05", "provincia": "BOLIVAR", "distrito": "02D01", "canton": "GUARANDA", "parroquia": "SAN LUIS DE PAMBIL", "categoria": "RURAL ALTA ACCESIBILIDAD" }, "geometry": { "type": "Point", "coordinates": [ -79.198924325079759, -1.245486593927766 ] } },
{ "type": "Feature", "properties": { "id": 1, "nombre": "CACHISAGUA", "tipologia": "CENTRO DE SALUD A", "institucio": "MSP", "zona": "Z05", "provincia": "BOLIVAR", "distrito": "02D01", "canton": "GUARANDA", "parroquia": "SAN SIMON (YACOTO)", "categoria": "RURAL ALTA ACCESIBILIDAD" }, "geometry": { "type": "Point", "coordinates": [ -78.963312849074811, -1.634500460355592 ] } },
{ "type": "Feature", "properties": { "id": 16, "nombre": "SAN SIMON", "tipologia": "CENTRO DE SALUD A", "institucio": "MSP", "zona": "Z05", "provincia": "BOLIVAR", "distrito": "02D01", "canton": "GUARANDA", "parroquia": "SAN SIMON (YACOTO)", "categoria": "RURAL ALTA ACCESIBILIDAD" }, "geometry": { "type": "Point", "coordinates": [ -78.930234334550761, -1.635513160324614 ] } },
{ "type": "Feature", "properties": { "id": 17, "nombre": "SANTA FE", "tipologia": "CENTRO DE SALUD A", "institucio": "MSP", "zona": "Z05", "provincia": "BOLIVAR", "distrito": "02D01", "canton": "GUARANDA", "parroquia": "SANTA FE (SANTA FE)", "categoria": "RURAL ALTA ACCESIBILIDAD" }, "geometry": { "type": "Point", "coordinates": [ -79.030325050839792, -1.610700592790967 ] } },
{ "type": "Feature", "properties": { "id": 18, "nombre": "SIMIATUG", "tipologia": "CENTRO DE SALUD B", "institucio": "MSP", "zona": "Z05", "provincia": "BOLIVAR", "distrito": "02D01", "canton": "GUARANDA", "parroquia": "SIMIATUG", "categoria": "RURAL MODERADA ACCESIBILIDAD" }, "geometry": { "type": "Point", "coordinates": [ -79.002329723815976, -1.268163988672959 ] } },
{ "type": "Feature", "properties": { "id": 20, "nombre": "TALAHUA", "tipologia": "CENTRO DE SALUD A", "institucio": "MSP", "zona": "Z05", "provincia": "BOLIVAR", "distrito": "02D01", "canton": "GUARANDA", "parroquia": "SIMIATUG", "categoria": "RURAL BAJA ACCESIBILIDAD" }, "geometry": { "type": "Point", "coordinates": [ -78.970685041989853, -1.303310651975536 ] } },
{ "type": "Feature", "properties": { "id": 5, "nombre": "EL RAYO BAJO", "tipologia": "PUESTO DE SALUD", "institucio": "MSP", "zona": "Z05", "provincia": "BOLIVAR", "distrito": "02D01", "canton": "GUARANDA", "parroquia": "GUARANDA", "categoria": "RURAL MODERADA ACCESIBILIDAD" }, "geometry": { "type": "Point", "coordinates": [ -79.108443094068321, -1.49813362529339 ] } },
{ "type": "Feature", "properties": { "id": 10, "nombre": "LOS TRIGALES", "tipologia": "CENTRO DE SALUD B", "institucio": "MSP", "zona": "Z05", "provincia": "BOLIVAR", "distrito": "02D01", "canton": "GUARANDA", "parroquia": "GUARANDA", "categoria": "RURAL ALTA ACCESIBILIDAD" }, "geometry": { "type": "Point", "coordinates": [ -79.088452981794447, -1.519053000386882 ] } },
{ "type": "Feature", "properties": { "id": 11, "nombre": "QUINUACORRAL", "tipologia": "PUESTO DE SALUD", "institucio": "MSP", "zona": "Z05", "provincia": "BOLIVAR", "distrito": "02D01", "canton": "GUARANDA", "parroquia": "GUARANDA", "categoria": "RURAL ALTA ACCESIBILIDAD" }, "geometry": { "type": "Point", "coordinates": [ -79.053496871234927, -1.525302511552385 ] } },
{ "type": "Feature", "properties": { "id": 13, "nombre": "SAN JUAN DE LLULLUNDONGO", "tipologia": "CENTRO DE SALUD A", "institucio": "MSP", "zona": "Z05", "provincia": "BOLIVAR", "distrito": "02D01", "canton": "GUARANDA", "parroquia": "GUARANDA", "categoria": "RURAL ALTA ACCESIBILIDAD" }, "geometry": { "type": "Point", "coordinates": [ -79.006090710029227, -1.497204846820775 ] } },
{ "type": "Feature", "properties": { "id": 21, "nombre": "VINCHOA", "tipologia": "CENTRO DE SALUD A", "institucio": "MSP", "zona": "Z05", "provincia": "BOLIVAR", "distrito": "02D01", "canton": "GUARANDA", "parroquia": "GUARANDA", "categoria": "RURAL ALTA ACCESIBILIDAD" }, "geometry": { "type": "Point", "coordinates": [ -78.991917901737537, -1.526501699071262 ] } },
{ "type": "Feature", "properties": { "id": 2, "nombre": "CENTRO DE SALUD CORDERO CRESPO", "tipologia": "CENTRO DE SALUD B", "institucio": "MSP", "zona": "Z05", "provincia": "BOLIVAR", "distrito": "02D01", "canton": "GUARANDA", "parroquia": "GUARANDA", "categoria": "URBANO" }, "geometry": { "type": "Point", "coordinates": [ -79.068504788587958, -1.492236307686767 ] } }
]
}
